NORAD_CAT_ID,OBJECT_NAME,OBJECT_TYPE,EPOCH,MEAN_MOTION,ECCENTRICITY,INCLINATION,RA_OF_ASC_NODE,ARG_OF_PERICENTER,MEAN_ANOMALY,BSTAR,MEAN_MOTION_DOT,MEAN_MOTION_DDOT,TLE_LINE0,TLE_LINE1,TLE_LINE2,SEMIMAJOR_AXIS,PERIOD,APOGEE,PERIGEE,DECAYED
56803.0,STARLINK-6029,PAYLOAD,2024-03-17 19:59:07,14.98331971,0.0002663,70.0014,4.4924,263.1522,96.9334,-2.1796e-05,-3.53e-06,0.0,0 STARLINK-6029,1 56803U 23078AN  24077.83272169 -.00000353  00000-0 -21796-4 0  9992,2 56803  70.0014   4.4924 0002663 263.1522  96.9334 14.98331971 44814,6950.187,96.107,573.903,570.201,0.0
56803.0,STARLINK-6029,PAYLOAD,2024-03-17 21:35:15,14.98331071,0.0002697,70.0013,4.3241,261.723,98.3623,-3.0757e-05,-4.6e-06,0.0,0 STARLINK-6029,1 56803U 23078AN  24077.89948222 -.00000460  00000-0 -30757-4 0  9994,2 56803  70.0013   4.3241 0002697 261.7230  98.3623 14.98331071 44561,6950.19,96.107,573.929,570.18,0.0
56803.0,STARLINK-6029,PAYLOAD,2024-03-18 03:59:47,14.9833238,0.0002677,70.0014,3.6509,261.2,98.8856,-1.3481e-05,-2.54e-06,0.0,0 STARLINK-6029,1 56803U 23078AN  24078.16652056 -.00000254  00000-0 -13481-4 0  9998,2 56803  70.0014   3.6509 0002677 261.2000  98.8856 14.98332380 44601,6950.186,96.107,573.911,570.19,0.0
56803.0,STARLINK-6029,PAYLOAD,2024-03-18 21:37:14,14.98345008,0.0002871,70.001,1.7991,262.9771,97.1061,0.00013219,1.485e-05,0.0,0 STARLINK-6029,1 56803U 23078AN  24078.90086394  .00001485  00000-0  13219-3 0  9999,2 56803  70.0010   1.7991 0002871 262.9771  97.1061 14.98345008 44713,6950.146,96.106,574.007,570.016,0.0
56803.0,STARLINK-6029,PAYLOAD,2024-03-19 02:25:38,14.98346674,0.0002338,70.0014,1.2938,253.8921,106.198,0.00020962,2.41e-05,0.0,0 STARLINK-6029,1 56803U 23078AN  24079.10113897  .00002410  00000-0  20962-3 0  9993,2 56803  70.0014   1.2938 0002338 253.8921 106.1980 14.98346674 45001,6950.141,96.106,573.631,570.381,0.0
56803.0,STARLINK-6029,PAYLOAD,2024-03-19 21:39:16,14.98326862,0.0004127,69.9989,359.2726,280.614,79.4554,-0.00012004,-1.525e-05,0.0,0 STARLINK-6029,1 56803U 23078AN  24079.90227384 -.00001525  00000-0 -12004-3 0  9994,2 56803  69.9989 359.2726 0004127 280.6140  79.4554 14.98326862 45128,6950.203,96.107,574.936,569.199,0.0
56803.0,STARLINK-6029,PAYLOAD,2024-03-20 04:03:48,14.98328073,0.0002719,70.0007,358.6004,251.8755,108.2108,-5.7693e-05,-7.81e-06,0.0,0 STARLINK-6029,1 56803U 23078AN  24080.16931007 -.00000781  00000-0 -57693-4 0  9995,2 56803  70.0007 358.6004 0002719 251.8755 108.2108 14.98328073 44908,6950.199,96.107,573.954,570.174,0.0
56803.0,STARLINK-6029,PAYLOAD,2024-03-20 21:41:17,14.98329759,0.0002569,70.002,356.7508,229.362,130.7316,-0.00036143,-4.403e-05,0.0,0 STARLINK-6029,1 56803U 23078AN  24080.90367880 -.00004403  00000-0 -36143-3 0  9990,2 56803  70.0020 356.7508 0002569 229.3620 130.7316 14.98329759 45011,6950.194,96.107,573.844,570.273,0.0
56803.0,STARLINK-6029,PAYLOAD,2024-03-21 04:05:50,14.98322491,0.0002481,70.0016,356.0769,241.4091,118.6819,-0.00034923,-4.256e-05,0.0,0 STARLINK-6029,1 56803U 23078AN  24081.17072421 -.00004256  00000-0 -34923-3 0  9994,2 56803  70.0016 356.0769 0002481 241.4091 118.6819 14.98322491 45310,6950.216,96.107,573.805,570.357,0.0
56803.0,STARLINK-6029,PAYLOAD,2024-03-21 12:06:30,14.98324137,0.0002804,70.0003,355.2333,254.0803,106.0048,-0.00011084,-1.415e-05,0.0,0 STARLINK-6029,1 56803U 23078AN  24081.50451825 -.00001415  00000-0 -11084-3 0  9997,2 56803  70.0003 355.2333 0002804 254.0803 106.0048 14.98324137 45363,6950.211,96.107,574.025,570.127,0.0
56803.0,STARLINK-6029,PAYLOAD,2024-03-21 21:43:18,14.98322664,0.0002973,70.0002,354.2234,261.0447,99.0375,0.00012858,1.441e-05,0.0,0 STARLINK-6029,1 56803U 23078AN  24081.90507347  .00001441  00000-0  12858-3 0  9999,2 56803  70.0002 354.2234 0002973 261.0447  99.0375 14.98322664 45165,6950.216,96.107,574.147,570.014,0.0
56803.0,STARLINK-6029,PAYLOAD,2024-03-22 04:07:49,14.98337398,0.000268,70.0004,353.5496,255.0706,105.0156,0.00027272,3.163e-05,0.0,0 STARLINK-6029,1 56803U 23078AN  24082.17210085  .00003163  00000-0  27272-3 0  9998,2 56803  70.0004 353.5496 0002680 255.0706 105.0156 14.98337398 45463,6950.17,96.107,573.898,570.172,0.0
56803.0,STARLINK-6029,PAYLOAD,2024-03-22 20:09:11,14.98319837,0.0003022,69.9995,351.867,263.836,96.2454,0.0001119,1.242e-05,0.0,0 STARLINK-6029,1 56803U 23078AN  24082.83971824  .00001242  00000-0  11190-3 0  9994,2 56803  69.9995 351.8670 0003022 263.8360  96.2454 14.98319837 45569,6950.224,96.108,574.19,569.989,0.0
56803.0,STARLINK-6029,PAYLOAD,2024-03-22 21:45:19,14.98319163,0.0002839,69.9999,351.6979,264.5853,95.4982,0.00013272,1.491e-05,0.0,0 STARLINK-6029,1 56803U 23078AN  24082.90647881  .00001491  00000-0  13272-3 0  9994,2 56803  69.9999 351.6979 0002839 264.5853  95.4982 14.98319163 45315,6950.226,96.108,574.065,570.118,0.0
56803.0,STARLINK-6029,PAYLOAD,2024-03-23 20:11:14,14.98309983,0.000348,70.0004,349.3403,256.198,103.8792,-0.00024002,-2.954e-05,0.0,0 STARLINK-6029,1 56803U 23078AN  24083.84114067 -.00002954  00000-0 -24002-3 0  9993,2 56803  70.0004 349.3403 0003480 256.1980 103.8792 14.98309983 45718,6950.255,96.108,574.538,569.701,0.0
56803.0,STARLINK-6029,PAYLOAD,2024-03-23 21:47:24,14.98289197,0.0002745,70.0004,349.1733,262.668,97.4167,-0.0005161,-6.239e-05,0.0,0 STARLINK-6029,1 56803U 23078AN  24083.90792230 -.00006239  00000-0 -51610-3 0  9999,2 56803  70.0004 349.1733 0002745 262.6680  97.4167 14.98289197 45464,6950.319,96.11,574.092,570.276,0.0
56803.0,STARLINK-6029,PAYLOAD,2024-03-24 04:11:53,14.98334238,0.000319,70.0007,348.5017,250.8695,109.2119,-4.0227e-06,-1.41e-06,0.0,0 STARLINK-6029,1 56803U 23078AN  24084.17492593 -.00000141  00000-0 -40227-5 0  9998,2 56803  70.0007 348.5017 0003190 250.8695 109.2119 14.98334238 45764,6950.18,96.107,574.262,569.828,0.0
56803.0,STARLINK-6029,PAYLOAD,2024-03-24 10:36:24,14.98348426,0.0003462,70.0,347.8257,269.1545,90.9217,1.9128e-05,1.35e-06,0.0,0 STARLINK-6029,1 56803U 23078AN  24084.44195435  .00000135  00000-0  19128-4 0  9999,2 56803  70.0000 347.8257 0003462 269.1545  90.9217 14.98348426 45808,6950.136,96.106,574.407,569.595,0.0
56803.0,STARLINK-6029,PAYLOAD,2024-03-24 23:25:28,14.98349606,0.0003524,69.998,346.4804,266.701,93.3746,0.00033169,3.869e-05,0.0,0 STARLINK-6029,1 56803U 23078AN  24084.97602552  .00003869  00000-0  33169-3 0  9997,2 56803  69.9980 346.4804 0003524 266.7010  93.3746 14.98349606 45629,6950.132,96.106,574.446,569.548,0.0
56803.0,STARLINK-6029,PAYLOAD,2024-03-25 04:13:51,14.9836302,0.0002863,69.9996,345.9739,267.5661,92.517,0.00046146,5.422e-05,0.0,0 STARLINK-6029,1 56803U 23078AN  24085.17628988  .00005422  00000-0  46146-3 0  9997,2 56803  69.9996 345.9739 0002863 267.5661  92.5170 14.98363020 45913,6950.091,96.105,573.946,569.966,0.0
56803.0,STARLINK-6029,PAYLOAD,2024-03-25 10:38:26,14.98323239,0.0003136,70.0008,345.3006,271.63,88.45,0.00018412,2.104e-05,0.0,0 STARLINK-6029,1 56803U 23078AN  24085.44335848  .00002104  00000-0  18412-3 0  9996,2 56803  70.0008 345.3006 0003136 271.6300  88.4500 14.98323239 45954,6950.214,96.107,574.258,569.899,0.0
56803.0,STARLINK-6029,PAYLOAD,2024-03-25 20:15:17,14.98277689,0.0003008,70.0,344.2907,275.1444,84.9372,0.00010156,1.117e-05,0.0,0 STARLINK-6029,1 56803U 23078AN  24085.84395512  .00001117  00000-0  10156-3 0  9994,2 56803  70.0000 344.2907 0003008 275.1444  84.9372 14.98277689 46013,6950.355,96.11,574.31,570.129,0.0
56803.0,STARLINK-6029,PAYLOAD,2024-03-25 21:51:25,14.98280025,0.0002811,70.0001,344.1227,270.0847,89.999,6.912e-05,7.31e-06,0.0,0 STARLINK-6029,1 56803U 23078AN  24085.91071638  .00000731  00000-0  69120-4 0  9999,2 56803  70.0001 344.1227 0002811 270.0847  89.9990 14.98280025 45760,6950.347,96.11,574.166,570.259,0.0
56803.0,STARLINK-6029,PAYLOAD,2024-03-26 02:39:50,14.98285712,0.0002633,70.0005,343.6182,268.8306,91.2552,0.00012627,1.412e-05,0.0,0 STARLINK-6029,1 56803U 23078AN  24086.11099650  .00001412  00000-0  12627-3 0  9992,2 56803  70.0005 343.6182 0002633 268.8306  91.2552 14.98285712 46056,6950.33,96.11,574.025,570.365,0.0
56803.0,STARLINK-6029,PAYLOAD,2024-03-26 10:40:23,14.98389375,0.0003843,69.9998,342.7754,268.7461,91.3258,0.00049295,5.803e-05,0.0,0 STARLINK-6029,1 56803U 23078AN  24086.44471469  .00005803  00000-0  49295-3 0  9999,2 56803  69.9998 342.7754 0003843 268.7461  91.3258 14.98389375 46104,6950.009,96.103,574.545,569.203,0.0
56803.0,STARLINK-6029,PAYLOAD,2024-03-26 20:17:16,14.98330282,0.0003509,69.9984,341.7673,280.2003,79.876,-0.00033309,-4.065e-05,0.0,0 STARLINK-6029,1 56803U 23078AN  24086.84532672 -.00004065  00000-0 -33309-3 0  9997,2 56803  69.9984 341.7673 0003509 280.2003  79.8760 14.98330282 46166,6950.192,96.107,574.496,569.618,0.0
56803.0,STARLINK-6029,PAYLOAD,2024-03-26 23:29:32,14.98332536,0.000307,69.9995,341.4303,268.827,91.2538,-0.00043496,-5.279e-05,0.0,0 STARLINK-6029,1 56803U 23078AN  24086.97884728 -.00005279  00000-0 -43496-3 0  9999,2 56803  69.9995 341.4303 0003070 268.8270  91.2538 14.98332536 45924,6950.185,96.107,574.184,569.916,0.0
56803.0,STARLINK-6029,PAYLOAD,2024-03-27 10:42:28,14.98338092,0.0002903,70.0002,340.2522,267.6078,92.4749,-0.00042157,-5.12e-05,0.0,0 STARLINK-6029,1 56803U 23078AN  24087.44616216 -.00005120  00000-0 -42157-3 0  9995,2 56803  70.0002 340.2522 0002903 267.6078  92.4749 14.98338092 46250,6950.168,96.106,574.051,570.015,0.0
56803.0,STARLINK-6029,PAYLOAD,2024-03-27 20:19:17,14.98307131,0.0003068,70.0,339.2421,273.6763,86.4045,0.00021477,2.469e-05,0.0,0 STARLINK-6029,1 56803U 23078AN  24087.84672871  .00002469  00000-0  21477-3 0  9991,2 56803  70.0000 339.2421 0003068 273.6763  86.4045 14.98307131 46314,6950.264,96.108,574.261,569.996,0.0
56803.0,STARLINK-6029,PAYLOAD,2024-03-27 21:55:25,14.98307779,0.0003093,69.9999,339.0738,273.123,86.9575,0.00020973,2.409e-05,0.0,0 STARLINK-6029,1 56803U 23078AN  24087.91348813  .00002409  00000-0  20973-3 0  9999,2 56803  69.9999 339.0738 0003093 273.1230  86.9575 14.98307779 46062,6950.262,96.108,574.276,569.977,0.0
